{
  "type": "FeatureCollection",
  "features": [
    {
      "type": "Feature",
      "properties": {
        "norad_id": 44333,
        "name": "AT&T T-16",
        "group": "intelsat",
        "lat": 0.023394241884241457,
        "lon": 75.37365313640616,
        "alt_km": 35786.627302480774,
        "timestamp": "2025-12-21T05:44:51.243891+00:00",
        "meta_object_name": "AT&T T-16",
        "meta_object_id": "2019-034A",
        "meta_epoch": "2025-12-20T14:27:46.526976",
        "meta_mean_motion": 1.00263761,
        "meta_eccentricity": 0.0001552,
        "meta_inclination": 0.019,
        "meta_ra_of_asc_node": 58.344,
        "meta_arg_of_pericenter": 92.0528,
        "meta_mean_anomaly": 55.1236,
        "meta_ephemeris_type": 0,
        "meta_classification_type": "U",
        "meta_norad_cat_id": 44333,
        "meta_element_set_no": 999,
        "meta_rev_at_epoch": 2384,
        "meta_bstar": 0,
        "meta_mean_motion_dot": -9.1e-07,
        "meta_mean_motion_ddot": 0,
        "tle_line1": "1 44333U 19034A   25354.60262184 -.00000091  00000+0  00000+0 0  9991",
        "tle_line2": "2 44333   0.0190  58.3440 0001552  92.0528  55.1236  1.00263761 23847"
      },
      "geometry": {
        "type": "Point",
        "coordinates": [
          75.37365313640616,
          0.023394241884241457
        ]
      }
    },
    {
      "type": "Feature",
      "properties": {
        "norad_id": 44476,
        "name": "INTELSAT 39 (IS-39)",
        "group": "intelsat",
        "lat": -0.02745027427749901,
        "lon": -121.77584778962817,
        "alt_km": 35787.46825818368,
        "timestamp": "2025-12-21T05:44:51.243903+00:00",
        "meta_object_name": "INTELSAT 39 (IS-39)",
        "meta_object_id": "2019-049B",
        "meta_epoch": "2025-12-20T22:05:08.640096",
        "meta_mean_motion": 1.00270587,
        "meta_eccentricity": 0.00010345,
        "meta_inclination": 0.0091,
        "meta_ra_of_asc_node": 14.3448,
        "meta_arg_of_pericenter": 120.0209,
        "meta_mean_anomaly": 348.6148,
        "meta_ephemeris_type": 0,
        "meta_classification_type": "U",
        "meta_norad_cat_id": 44476,
        "meta_element_set_no": 999,
        "meta_rev_at_epoch": 2334,
        "meta_bstar": 0,
        "meta_mean_motion_dot": 5.7e-07,
        "meta_mean_motion_ddot": 0,
        "tle_line1": "1 44476U 19049B   25354.92023889  .00000057  00000+0  00000+0 0  9998",
        "tle_line2": "2 44476   0.0091  14.3448 0001034 120.0209 348.6148  1.00270587 23349"
      },
      "geometry": {
        "type": "Point",
        "coordinates": [
          -121.77584778962817,
          -0.02745027427749901
        ]
      }
    },
    {
      "type": "Feature",
      "properties": {
        "norad_id": 46114,
        "name": "GALAXY 30 (G-30)",
        "group": "intelsat",
        "lat": 0.03858220327209944,
        "lon": 51.3035499756223,
        "alt_km": 35792.26713273453,
        "timestamp": "2025-12-21T05:44:51.243915+00:00",
        "meta_object_name": "GALAXY 30 (G-30)",
        "meta_object_id": "2020-056C",
        "meta_epoch": "2025-12-20T16:03:37.347264",
        "meta_mean_motion": 1.0027331,
        "meta_eccentricity": 0.00020343,
        "meta_inclination": 0.0182,
        "meta_ra_of_asc_node": 345.3857,
        "meta_arg_of_pericenter": 285.3913,
        "meta_mean_anomaly": 294.6471,
        "meta_ephemeris_type": 0,
        "meta_classification_type": "U",
        "meta_norad_cat_id": 46114,
        "meta_element_set_no": 999,
        "meta_rev_at_epoch": 1950,
        "meta_bstar": 0,
        "meta_mean_motion_dot": 6e-07,
        "meta_mean_motion_ddot": 0,
        "tle_line1": "1 46114U 20056C   25354.66918226  .00000060  00000+0  00000+0 0  9992",
        "tle_line2": "2 46114   0.0182 345.3857 0002034 285.3913 294.6471  1.00273310 19509"
      },
      "geometry": {
        "type": "Point",
        "coordinates": [
          51.3035499756223,
          0.03858220327209944
        ]
      }
    },
    {
      "type": "Feature",
      "properties": {
        "norad_id": 54026,
        "name": "GALAXY 33 (G-33)",
        "group": "intelsat",
        "lat": 0.011405630821083328,
        "lon": 43.28047407593073,
        "alt_km": 35790.71696731998,
        "timestamp": "2025-12-21T05:44:51.243926+00:00",
        "meta_object_name": "GALAXY 33 (G-33)",
        "meta_object_id": "2022-128A",
        "meta_epoch": "2025-12-20T17:44:03.645312",
        "meta_mean_motion": 1.00271333,
        "meta_eccentricity": 0.00015502,
        "meta_inclination": 0.0167,
        "meta_ra_of_asc_node": 44.0159,
        "meta_arg_of_pericenter": 225.3715,
        "meta_mean_anomaly": 313.1978,
        "meta_ephemeris_type": 0,
        "meta_classification_type": "U",
        "meta_norad_cat_id": 54026,
        "meta_element_set_no": 999,
        "meta_rev_at_epoch": 1195,
        "meta_bstar": 0,
        "meta_mean_motion_dot": 1.02e-06,
        "meta_mean_motion_ddot": 0,
        "tle_line1": "1 54026U 22128A   25354.73893108  .00000102  00000+0  00000+0 0  9991",
        "tle_line2": "2 54026   0.0167  44.0159 0001550 225.3715 313.1978  1.00271333 11950"
      },
      "geometry": {
        "type": "Point",
        "coordinates": [
          43.28047407593073,
          0.011405630821083328
        ]
      }
    },
    {
      "type": "Feature",
      "properties": {
        "norad_id": 54027,
        "name": "GALAXY 34 (G-34)",
        "group": "intelsat",
        "lat": 0.03203479090313564,
        "lon": 47.32589296856759,
        "alt_km": 35793.17211521497,
        "timestamp": "2025-12-21T05:44:51.243938+00:00",
        "meta_object_name": "GALAXY 34 (G-34)",
        "meta_object_id": "2022-128B",
        "meta_epoch": "2025-12-20T16:02:29.955264",
        "meta_mean_motion": 1.0026794,
        "meta_eccentricity": 0.00017422,
        "meta_inclination": 0.0233,
        "meta_ra_of_asc_node": 12.1424,
        "meta_arg_of_pericenter": 249.9166,
        "meta_mean_anomaly": 299.1202,
        "meta_ephemeris_type": 0,
        "meta_classification_type": "U",
        "meta_norad_cat_id": 54027,
        "meta_element_set_no": 999,
        "meta_rev_at_epoch": 1212,
        "meta_bstar": 0,
        "meta_mean_motion_dot": 0,
        "meta_mean_motion_ddot": 0,
        "tle_line1": "1 54027U 22128B   25354.66840226  .00000000  00000+0  00000+0 0  9994",
        "tle_line2": "2 54027   0.0233  12.1424 0001742 249.9166 299.1202  1.00267940 12123"
      },
      "geometry": {
        "type": "Point",
        "coordinates": [
          47.32589296856759,
          0.03203479090313564
        ]
      }
    },
    {
      "type": "Feature",
      "properties": {
        "norad_id": 54243,
        "name": "GALAXY 31 (G-31)",
        "group": "intelsat",
        "lat": 0.0070187687892755155,
        "lon": 55.27730106923672,
        "alt_km": 35790.46447045719,
        "timestamp": "2025-12-21T05:44:51.243950+00:00",
        "meta_object_name": "GALAXY 31 (G-31)",
        "meta_object_id": "2022-153A",
        "meta_epoch": "2025-12-20T16:04:44.740128",
        "meta_mean_motion": 1.0027114,
        "meta_eccentricity": 0.00013728,
        "meta_inclination": 0.0199,
        "meta_ra_of_asc_node": 83.2209,
        "meta_arg_of_pericenter": 195.4241,
        "meta_mean_anomaly": 291.0428,
        "meta_ephemeris_type": 0,
        "meta_classification_type": "U",
        "meta_norad_cat_id": 54243,
        "meta_element_set_no": 999,
        "meta_rev_at_epoch": 534,
        "meta_bstar": 0,
        "meta_mean_motion_dot": 3.7e-07,
        "meta_mean_motion_ddot": 0,
        "tle_line1": "1 54243U 22153A   25354.66996227  .00000037  00000+0  00000+0 0  9995",
        "tle_line2": "2 54243   0.0199  83.2209 0001372 195.4241 291.0428  1.00271140  5346"
      },
      "geometry": {
        "type": "Point",
        "coordinates": [
          55.27730106923672,
          0.0070187687892755155
        ]
      }
    },
    {
      "type": "Feature",
      "properties": {
        "norad_id": 54244,
        "name": "GALAXY 32 (G-32)",
        "group": "intelsat",
        "lat": 0.036877540338906604,
        "lon": 85.28836207841411,
        "alt_km": 35791.17630746164,
        "timestamp": "2025-12-21T05:44:51.243961+00:00",
        "meta_object_name": "GALAXY 32 (G-32)",
        "meta_object_id": "2022-153B",
        "meta_epoch": "2025-12-20T11:05:05.937792",
        "meta_mean_motion": 1.00271078,
        "meta_eccentricity": 0.00019462,
        "meta_inclination": 0.012,
        "meta_ra_of_asc_node": 19.5385,
        "meta_arg_of_pericenter": 299.6546,
        "meta_mean_anomaly": 205.3828,
        "meta_ephemeris_type": 0,
        "meta_classification_type": "U",
        "meta_norad_cat_id": 54244,
        "meta_element_set_no": 999,
        "meta_rev_at_epoch": 1135,
        "meta_bstar": 0,
        "meta_mean_motion_dot": -1.51e-06,
        "meta_mean_motion_ddot": 0,
        "tle_line1": "1 54244U 22153B   25354.46187428 -.00000151  00000+0  00000+0 0  9997",
        "tle_line2": "2 54244   0.0120  19.5385 0001946 299.6546 205.3828  1.00271078 11350"
      },
      "geometry": {
        "type": "Point",
        "coordinates": [
          85.28836207841411,
          0.036877540338906604
        ]
      }
    }
  ]
}